ONEWEB-0551             
1 56053U 23043H   24063.05703270  .00000072  00000+0  15649-3 0  9996
2 56053  87.8951  65.6392 0001845  81.4383 278.6956 13.15548994 47378
ONEWEB-0552             
1 56054U 23043J   24062.92790549  .00000041  00000+0  67523-4 0  9992
2 56054  87.9223  50.4436 0002170  78.7641 281.3736 13.21826327 47756
ONEWEB-0553             
1 56055U 23043K   24063.21537905 -.00000046  00000+0 -15332-3 0  9998
2 56055  87.9084  35.1486 0001631  97.4175 262.7141 13.16595258 49887
ONEWEB-0554             
1 56056U 23043L   24062.89873019  .00000063  00000+0  13001-3 0  9999
2 56056  87.9085  35.2302 0002613  82.6347 277.5081 13.16595392 48914
ONEWEB-0555             
1 56057U 23043M   24062.93672034  .00000065  00000+0  13583-3 0  9996
2 56057  87.9085  35.1970 0002041 105.3631 254.7726 13.16593293 48921
ONEWEB-0557             
1 56058U 23043N   24063.17895905 -.00000101  00000+0 -29856-3 0  9991
2 56058  87.9086  35.1747 0002561 107.5828 252.5583 13.16595255 49865
ONEWEB-0558             
1 56059U 23043P   24062.92161388  .00000059  00000+0  11115-3 0  9994
2 56059  87.9227  50.4248 0001754  69.3707 290.7615 13.21825263 47761
ONEWEB-0559             
1 56060U 23043Q   24062.91057550  .00000103  00000+0  21816-3 0  9999
2 56060  87.9227  50.4265 0002355  73.2173 286.9219 13.21824881 47774
ONEWEB-0566             
1 56061U 23043R   24063.20703469  .00000088  00000+0  18079-3 0  9999
2 56061  87.9225  50.3684 0001824  62.2084 297.9234 13.21827451 48705
ONEWEB-0568             
1 56062U 23043S   24063.42436593  .00000083  00000+0  18410-3 0  9999
2 56062  87.9084  35.0900 0001803  95.6831 264.4505 13.16595592 49913
ONEWEB-0574             
1 56063U 23043T   24063.50352541  .00000099  00000+0  20870-3 0  9999
2 56063  87.9223  50.3055 0001760  85.6046 274.5289 13.21826736 48787
ONEWEB-0575             
1 56064U 23043U   24063.19003891  .00000014  00000+0  36431-5 0  9995
2 56064  87.9085  35.1441 0002419  93.1476 266.9931 13.16595019 49878
ONEWEB-0576             
1 56065U 23043V   24063.17104532 -.00000040  00000+0 -13856-3 0  9993
2 56065  87.9085  35.1476 0001963  98.0804 262.0549 13.16592252 49866
ONEWEB-0577             
1 56066U 23043W   24063.17738252 -.00000076  00000+0 -23340-3 0  9994
2 56066  87.9083  35.1451 0002703  94.4756 265.6684 13.16594635 49896
ONEWEB-0578             
1 56067U 23043X   24063.18812703 -.00000040  00000+0 -12835-3 0  9998
2 56067  87.9227  50.3632 0001831  90.5118 269.6225 13.21825058 48703
ONEWEB-0579             
1 56068U 23043Y   24062.95156080  .00000017  00000+0  94982-5 0  9999
2 56068  87.9223  50.4113 0002152  75.2743 284.8629 13.21827405 47777
ONEWEB-0581             
1 56069U 23043Z   24063.18371416 -.00000070  00000+0 -21620-3 0  9996
2 56069  87.9084  35.1735 0002513  84.3368 275.8050 13.16594494 49861
ONEWEB-0609             
1 56070U 23043AA  24063.46583826  .00000216  00000+0  54058-3 0  9990
2 56070  87.8953  65.5423 0001845  86.6449 273.4893 13.15547591 47468
ONEWEB-0613             
1 56071U 23043AB  24063.08079987  .00000132  00000+0  31699-3 0  9990
2 56071  87.8957  65.6111 0001968  77.3837 282.7513 13.15547002 47416
ONEWEB-0630             
1 56072U 23043AC  24063.07603280  .00000135  00000+0  32445-3 0  9992
2 56072  87.8953  65.6069 0001769  75.4170 284.7156 13.15549953 47404
ONEWEB-0632             
1 56073U 23043AD  24062.91917946  .00000219  00000+0  54684-3 0  9994
2 56073  87.8953  65.6567 0002323  86.1975 273.9421 13.15549285 46476
ONEWEB-0633             
1 56074U 23043AE  24063.44523231  .00010828  00000+0  28714-1 0  9994
2 56074  87.8944  65.5371 0001891  65.4244 294.7083 13.15499316 47438
ONEWEB-0634             
1 56075U 23043AF  24063.50702968 -.00000008  00000+0 -55892-4 0  9999
2 56075  87.8953  65.5286 0001490  93.3560 266.7741 13.15549229 47439
ONEWEB-0635             
1 56076U 23043AG  24063.50228592 -.00000069  00000+0 -21820-3 0  9996
2 56076  87.8951  65.5874 0002372  87.3408 272.7994 13.15547851 47464
ONEWEB-0636             
1 56077U 23043AH  24062.73378077 -.00000048  00000+0 -16261-3 0  9995
2 56077  87.8952  65.7098 0002295  91.6445 268.4949 13.15550037 46437
ONEWEB-0637             
1 56078U 23043AJ  24062.72744598 -.00000084  00000+0 -25820-3 0  9991
2 56078  87.8953  65.6860 0002378  91.5442 268.5960 13.15546962 46451
ONEWEB-0647             
1 56079U 23043AK  24063.25509598 -.00000134  00000+0 -39117-3 0  9990
2 56079  87.8952  65.6020 0002243  85.5973 274.5414 13.15549004 46510
ONEWEB-0651             
1 56080U 23043AL  24062.94609961 -.00000100  00000+0 -29923-3 0  9999
2 56080  87.8956  65.6371 0002322  94.0286 266.1110 13.15549952 47675
ONEWEB-0718             
1 56081U 23043AM  24063.24558598 -.00000011  00000+0 -63400-4 0  9993
2 56081  87.8955  65.5646 0001339 100.4834 259.6447 13.15546805 47435
GSLV R/B                
1 56082U 23043AN  24063.12955743  .00081697  00000+0  85033-3 0  9996
2 56082  87.4084  19.6322 0020304 114.1396 246.1998 15.64041311 53048
ONEWEB-0561             
1 56710U 23068A   24062.75551920  .00002639  00000+0  52688-2 0  9996
2 56710  88.2852  79.5459 0002689  70.1514 289.9917 13.34316641 39061
ONEWEB-0668             
1 56711U 23068B   24062.88210355  .00000192  00000+0  46794-3 0  9999
2 56711  87.9419  35.1826 0001448 102.4410 257.6883 13.16593490 41739
ONEWEB-0676             
1 56712U 23068C   24062.93275494  .00000069  00000+0  14804-3 0  9991
2 56712  87.9084  35.2093 0002373  81.9880 278.1521 13.16591970 41665
ONEWEB-0677             
1 56713U 23068D   24062.55155387  .00000073  00000+0  12005-3 0  9994
2 56713  88.3188  77.9210 0002597  96.1501 263.9937 13.34777578 39228
ONEWEB-0678             
1 56714U 23068E   24062.90966208  .00000175  00000+0  43178-3 0  9994
2 56714  87.8957  65.5943 0001758  84.1308 276.0023 13.15549551 39333
ONEWEB-0679             
1 56715U 23068F   24062.90744615  .00000542  00000+0  13829-2 0  9998
2 56715  87.9080  35.2230 0002184 106.2725 253.8646 13.16594426 41685
ONEWEB-0680             
1 56716U 23068G   24063.46962432  .00000127  00000+0  27639-3 0  9994
2 56716  87.9227  50.3450 0001522 112.5280 247.6015 13.21825295 41398
ONEWEB-0681             
1 56717U 23068H   24062.88928711  .00000029  00000+0  38145-4 0  9998
2 56717  87.9226  50.4491 0003142  90.6976 269.4518 13.21825188 40606
ONEWEB-0682             
1 56718U 23068J   24062.93588054  .00000052  00000+0  10491-3 0  9996
2 56718  87.8953  65.6341 0001969 109.2102 250.9242 13.15590497 39509
ONEWEB-0683             
1 56719U 23068K   24063.03327312 -.00000094  00000+0 -28409-3 0  9993
2 56719  87.8952  65.5876 0001815 100.2064 259.9271 13.15546559 40186
ONEWEB-0684             
1 56720U 23068L   24062.73695707 -.00000005  00000+0 -47134-4 0  9996
2 56720  87.8953  65.7225 0001483  75.5671 284.5624 13.15547665 39271
ONEWEB-0686             
1 56721U 23068M   24063.42924827 -.00009739  00000+0 -25506-1 0  9991
2 56721  87.9078  35.1559 0002073  73.7120 286.4239 13.16676448 42446
ONEWEB-0694             
1 56722U 23068N   24062.92326080  .00000078  00000+0  16972-3 0  9997
2 56722  87.9144  35.1703 0001651  99.7458 260.3859 13.16593160 41734
ONEWEB-0696             
1 56723U 23068P   24062.92234245  .00000216  00000+0  54047-3 0  9998
2 56723  87.8955  65.6598 0002159  81.9580 278.1795 13.15550095 39414
ONEWEB-0703             
1 56724U 23068Q   24063.08396882  .00000046  00000+0  88387-4 0  9999
2 56724  87.8954  65.6490 0002913  68.2432 291.9008 13.15547067 40021
ONEWEB-0721             
1 56725U 23068R   24062.90062611  .00001844  00000+0  21693-3 0  9993
2 56725  86.6828  20.4787 0008930 295.9386  64.0917 14.84275837 42748
